     2.11           N: GPS NAV DATA                         RINEX VERSION / TYPE
RTKCONV demo5 b34f.1                    20231029 203020 UTC PGM / RUN BY / DATE 
format: u-blox UBX                                          COMMENT             
log: C:\Users\oo\Desktop\divers\verniquet\Reseau\verniquet\mCOMMENT             
                                                            END OF HEADER       
24 23 10 29 18 00 00.0 -.358462799340D-03 -.943600753089D-11  .000000000000D+00
     .670000000000D+02 -.348125000000D+02  .533522223342D-08  .150089983306D+01
    -.177882611752D-05  .147586391540D-01  .101216137409D-04  .515363148308D+04
     .648000000000D+05 -.365078449249D-06  .254713239278D+01  .186264514923D-08
     .934124326988D+00  .174250000000D+03  .936700061980D+00 -.845320925295D-08
    -.729673250963D-09  .100000000000D+01  .228600000000D+04  .000000000000D+00
     .200000000000D+01  .000000000000D+00  .232830643654D-08  .670000000000D+02
     .612360000000D+05  .400000000000D+01
12 23 10 29 18 00 00.0 -.441263895482D-03 -.420641299570D-11  .000000000000D+00
     .105000000000D+03  .141093750000D+03  .436696761602D-08 -.191570415700D+00
     .735372304916D-05  .866087106988D-02  .889226794243D-05  .515377657890D+04
     .648000000000D+05 -.894069671631D-07 -.252808144554D+01  .614672899246D-07
     .964350825814D+00  .210218750000D+03  .139546282715D+01 -.817998358629D-08
     .171078554680D-09  .100000000000D+01  .228600000000D+04  .000000000000D+00
     .200000000000D+01  .000000000000D+00 -.125728547573D-07  .105000000000D+03
     .612360000000D+05  .400000000000D+01
19 23 10 29 17 59 44.0  .391674228013D-03  .522959453519D-11  .000000000000D+00
     .370000000000D+02 -.150312500000D+02  .458840541122D-08 -.875439178059D+00
    -.653788447380D-06  .936341658235D-02  .126659870148D-06  .515365534782D+04
     .647840000000D+05 -.212341547012D-06 -.144385113063D+01 -.987201929092D-07
     .970838302809D+00  .384656250000D+03  .243960322091D+01 -.857857161766D-08
     .157149403046D-10  .100000000000D+01  .228600000000D+04  .000000000000D+00
     .200000000000D+01  .000000000000D+00 -.153668224812D-07  .370000000000D+02
     .612360000000D+05  .400000000000D+01
15 23 10 29 18 00 00.0  .919243320823D-04  .375166564481D-11  .000000000000D+00
     .480000000000D+02  .165312500000D+02  .566309303341D-08  .227446792362D+01
     .659376382828D-06  .155067535816D-01  .464357435703D-05  .515378421593D+04
     .648000000000D+05  .122934579849D-06  .144573152164D+01 -.264495611191D-06
     .933079832737D+00  .274625000000D+03  .126202719597D+01 -.833927593574D-08
     .324299222650D-09  .100000000000D+01  .228600000000D+04  .000000000000D+00
     .200000000000D+01  .000000000000D+00 -.107102096081D-07  .480000000000D+02
     .612360000000D+05  .400000000000D+01
25 23 10 29 18 00 00.0  .475016888231D-03  .170530256582D-11  .000000000000D+00
     .210000000000D+02  .122562500000D+03  .470055293975D-08 -.380276494854D+00
     .647827982903D-05  .113386797020D-01  .926665961742D-05  .515366672707D+04
     .648000000000D+05 -.502914190292D-07 -.261219500580D+01  .124797224998D-06
     .952215336642D+00  .195406250000D+03  .105527487392D+01 -.832856120372D-08
     .742888087128D-10  .100000000000D+01  .228600000000D+04  .000000000000D+00
     .200000000000D+01  .000000000000D+00  .558793544769D-08  .210000000000D+02
     .612360000000D+05  .400000000000D+01
17 23 10 29 18 00 00.0  .723616220057D-03 -.341060513165D-12  .000000000000D+00
     .200000000000D+02 -.131250000000D+01  .455018953366D-08 -.293070636204D+01
     .875443220139D-07  .138353933580D-01 -.588595867157D-06  .515360496521D+04
     .648000000000D+05  .102445483208D-06 -.148832121869D+01  .502914190292D-07
     .971711948709D+00  .398906250000D+03 -.138526426639D+01 -.827605901679D-08
    -.500020827875D-10  .100000000000D+01  .228600000000D+04  .000000000000D+00
     .200000000000D+01  .000000000000D+00 -.111758708954D-07  .200000000000D+02
     .612360000000D+05  .400000000000D+01
23 23 10 29 18 00 00.0  .903243198991D-04  .602540239925D-11  .000000000000D+00
     .136000000000D+03 -.734375000000D+01  .398516599816D-08  .276030498830D+00
    -.324100255966D-06  .380652805325D-02  .111497938633D-04  .515369187737D+04
     .648000000000D+05  .856816768646D-07  .515261482092D+00 -.186264514923D-08
     .976246413976D+00  .174156250000D+03 -.306287158931D+01 -.768210570482D-08
     .635383609135D-09  .100000000000D+01  .228600000000D+04  .000000000000D+00
     .200000000000D+01  .000000000000D+00 -.838190317154D-08  .136000000000D+03
     .612360000000D+05  .400000000000D+01
32 23 10 29 17 59 44.0 -.579190906137D-03 -.488853402203D-11  .000000000000D+00
     .110000000000D+02  .431250000000D+01  .512164190837D-08 -.225008809832D+01
     .210478901863D-06  .707201706246D-02  .447966158390D-05  .515357996941D+04
     .647840000000D+05  .147148966789D-06  .158202810856D+01  .745058059692D-08
     .960057415799D+00  .291093750000D+03 -.222349363595D+01 -.825641534141D-08
     .213937482783D-09  .100000000000D+01  .228600000000D+04  .000000000000D+00
     .200000000000D+01  .000000000000D+00  .465661287308D-09  .110000000000D+02
     .612360000000D+05  .400000000000D+01
13 23 10 29 18 00 00.0  .589495990425D-03  .420641299570D-11  .000000000000D+00
     .800000000000D+01 -.728125000000D+01  .488234622646D-08  .296393308348D+01
    -.488013029099D-06  .765057944227D-02  .492483377457D-05  .515365260887D+04
     .648000000000D+05 -.186264514923D-08  .173099986684D+01 -.121071934700D-06
     .969953424625D+00  .290406250000D+03  .950989262074D+00 -.802247702551D-08
    -.257153568621D-10  .100000000000D+01  .228600000000D+04  .000000000000D+00
     .200000000000D+01  .000000000000D+00 -.116415321827D-07  .800000000000D+01
     .612360000000D+05  .400000000000D+01
22 23 10 29 18 00 00.0  .937120057642D-04 -.704858393874D-11  .000000000000D+00
     .580000000000D+02  .168875000000D+03  .420481800469D-08 -.237066953794D+01
     .865198671818D-05  .151244030567D-01  .889226794243D-05  .515373895454D+04
     .648000000000D+05  .143423676491D-06 -.250668017558D+01  .229105353355D-06
     .963216713202D+00  .209843750000D+03 -.117324408605D+01 -.778675292094D-08
     .153577825704D-09  .100000000000D+01  .228600000000D+04  .000000000000D+00
     .280000000000D+01  .000000000000D+00 -.111758708954D-07  .580000000000D+02
     .622260000000D+05  .400000000000D+01
 1 23 10 29 17 59 44.0  .163322314620D-03 -.227373675443D-12  .000000000000D+00
     .600000000000D+01 -.134468750000D+03  .365265214762D-08  .119195675250D+01
    -.709109008312D-05  .128947913181D-01  .885128974915D-05  .515363629723D+04
     .647840000000D+05 -.175088644028D-06 -.482801290223D+00  .689178705215D-07
     .990665225686D+00  .227343750000D+03  .990235266748D+00 -.788247119371D-08
    -.373944147703D-09  .100000000000D+01  .228600000000D+04  .000000000000D+00
     .200000000000D+01  .630000000000D+02  .512227416039D-08  .600000000000D+01
     .613260000000D+05  .400000000000D+01
10 23 10 29 18 00 00.0 -.592977739871D-04 -.147792889038D-11  .000000000000D+00
     .660000000000D+02 -.275000000000D+01  .389301930274D-08 -.921958976732D+00
    -.223517417908D-07  .899249676149D-02  .109132379293D-04  .515368871307D+04
     .648000000000D+05  .162050127983D-06  .543219131029D+00  .104308128357D-06
     .981084959932D+00  .178187500000D+03 -.243611286954D+01 -.766603360678D-08
     .638598028743D-09  .100000000000D+01  .228600000000D+04  .000000000000D+00
     .280000000000D+01  .000000000000D+00  .232830643654D-08  .660000000000D+02
     .630360000000D+05  .400000000000D+01
 6 23 10 29 18 00 00.0  .519236084074D-03 -.920863385545D-11  .000000000000D+00
     .450000000000D+02 -.155156250000D+03  .355693387486D-08  .139413480621D+01
    -.797212123871D-05  .291324348655D-02  .861845910549D-05  .515377331734D+04
     .648000000000D+05  .126659870148D-06 -.491143102196D+00 -.745058059692D-08
     .989814881146D+00  .226187500000D+03 -.831446541109D+00 -.772246452879D-08
    -.269296931584D-09  .100000000000D+01  .228600000000D+04  .000000000000D+00
     .200000000000D+01  .000000000000D+00  .372529029846D-08  .450000000000D+02
     .625860000000D+05  .400000000000D+01
